$$SOE
2460147.500000000, A.D. 2023-Jul-22 00:00:00.0000, -1.277791912531905E+08, 5.166605923250310E+07, 4.180218285699848E+06,
2460154.500000000, A.D. 2023-Jul-29 00:00:00.0000, -1.441470428827490E+08, 3.641256828039185E+07, 2.774718813754020E+06,
2460161.500000000, A.D. 2023-Aug-05 00:00:00.0000, -1.583869752078792E+08, 2.061093469952872E+07, 1.327317731603343E+06,
2460168.500000000, A.D. 2023-Aug-12 00:00:00.0000, -1.707386256992748E+08, 4.556233200365232E+06, -1.365576660611241E+05,
2460175.500000000, A.D. 2023-Aug-19 00:00:00.0000, -1.814247046175492E+08, -1.154811991630016E+07, -1.599560501845311E+06,
2460182.500000000, A.D. 2023-Aug-26 00:00:00.0000, -1.906428715717776E+08, -2.756281518991791E+07, -3.049953504056472E+06,
2460189.500000000, A.D. 2023-Sep-02 00:00:00.0000, -1.985647017151404E+08, -4.339289535539547E+07, -4.479852505866632E+06,
2460196.500000000, A.D. 2023-Sep-09 00:00:00.0000, -2.053376539211147E+08, -5.897404022810642E+07, -5.884015237452079E+06,
2460203.500000000, A.D. 2023-Sep-16 00:00:00.0000, -2.110880490255495E+08, -7.426315688029286E+07, -7.259014997483686E+06,
2460210.500000000, A.D. 2023-Sep-23 00:00:00.0000, -2.159241537948563E+08, -8.923193124820767E+07, -8.602677496929355E+06,
2460217.500000000, A.D. 2023-Sep-30 00:00:00.0000, -2.199390045886468E+08, -1.038623840446242E+08, -9.913698167122692E+06,
2460224.500000000, A.D. 2023-Oct-07 00:00:00.0000, -2.232128663139570E+08, -1.181437887528723E+08, -1.119138139052189E+07,
2460231.500000000, A.D. 2023-Oct-14 00:00:00.0000, -2.258153071739211E+08, -1.320705337155783E+08, -1.243545404049963E+07,
2460238.500000000, A.D. 2023-Oct-21 00:00:00.0000, -2.278069116334939E+08, -1.456406182378971E+08, -1.364593334407958E+07,
2460245.500000000, A.D. 2023-Oct-28 00:00:00.0000, -2.292406957609394E+08, -1.588545794500713E+08, -1.482303628746272E+07,
2460252.500000000, A.D. 2023-Nov-04 00:00:00.0000, -2.301632772239508E+08, -1.717147243661023E+08, -1.596711595727647E+07,
2460259.500000000, A.D. 2023-Nov-11 00:00:00.0000, -2.306158417172748E+08, -1.842245779848579E+08, -1.707861602355127E+07,
2460266.500000000, A.D. 2023-Nov-18 00:00:00.0000, -2.306349425983005E+08, -1.963884845852090E+08, -1.815803805664481E+07,
2460273.500000000, A.D. 2023-Nov-25 00:00:00.0000, -2.302531646657745E+08, -2.082113185289785E+08, -1.920591803275169E+07,
2460280.500000000, A.D. 2023-Dec-02 00:00:00.0000, -2.294996773403640E+08, -2.196982740216934E+08, -2.022280945377792E+07,
2460287.500000000, A.D. 2023-Dec-09 00:00:00.0000, -2.284006975896462E+08, -2.308547122822769E+08, -2.120927126250395E+07,
2460294.500000000, A.D. 2023-Dec-16 00:00:00.0000, -2.269798787479096E+08, -2.416860506891001E+08, -2.216585927131785E+07,
2460301.500000000, A.D. 2023-Dec-23 00:00:00.0000, -2.252586381106239E+08, -2.521976821163904E+08, -2.309312014157209E+07,
2460308.500000000, A.D. 2023-Dec-30 00:00:00.0000, -2.232564353032101E+08, -2.623949153605729E+08, -2.399158702636035E+07,
2460315.500000000, A.D. 2024-Jan-06 00:00:00.0000, -2.209910118072298E+08, -2.722829331364623E+08, -2.486177641390850E+07,
2460322.500000000, A.D. 2024-Jan-13 00:00:00.0000, -2.184785954526052E+08, -2.818667651289362E+08, -2.570418625016269E+07,
2460329.500000000, A.D. 2024-Jan-20 00:00:00.0000, -2.157340743343921E+08, -2.911512698176390E+08, -2.651929493574075E+07,
2460336.500000000, A.D. 2024-Jan-27 00:00:00.0000, -2.127711468213846E+08, -3.001411220381311E+08, -2.730756076099195E+07,
2460343.500000000, A.D. 2024-Feb-03 00:00:00.0000, -2.096024518830065E+08, -3.088408054412369E+08, -2.806942167023849E+07,
2460350.500000000, A.D. 2024-Feb-10 00:00:00.0000, -2.062396825776618E+08, -3.172546088011543E+08, -2.880529529463647E+07,
2460357.500000000, A.D. 2024-Feb-17 00:00:00.0000, -2.026936851410156E+08, -3.253866251618640E+08, -2.951557918489321E+07,
2460364.500000000, A.D. 2024-Feb-24 00:00:00.0000, -1.989745457816847E+08, -3.332407530579535E+08, -3.020065118708865E+07,
2460371.500000000, A.D. 2024-Mar-02 00:00:00.0000, -1.950916669478005E+08, -3.408206992782337E+08, -3.086086992369838E+07,
2460378.500000000, A.D. 2024-Mar-09 00:00:00.0000, -1.910538344290301E+08, -3.481299828053257E+08, -3.149657536508295E+07,
2460385.500000000, A.D. 2024-Mar-16 00:00:00.0000, -1.868692761610558E+08, -3.551719394049375E+08, -3.210808948656122E+07,
2460392.500000000, A.D. 2024-Mar-23 00:00:00.0000, -1.825457138983365E+08, -3.619497255043435E+08, -3.269571689178114E+07,
2460399.500000000, A.D. 2024-Mar-30 00:00:00.0000, -1.780904108929829E+08, -3.684663211956856E+08, -3.325974518458948E+07,
2460406.500000000, A.D. 2024-Apr-06 00:00:00.0000, -1.735102160839310E+08, -3.747245355887880E+08, -3.380044537770319E+07,
2460413.500000000, A.D. 2024-Apr-13 00:00:00.0000, -1.688116018944259E+08, -3.807270135726241E+08, -3.431807258838026E+07,
2460420.500000000, A.D. 2024-Apr-20 00:00:00.0000, -1.640006971468515E+08, -3.864762412314484E+08, -3.481286670990315E+07,
2460427.500000000, A.D. 2024-Apr-27 00:00:00.0000, -1.590833170901074E+08, -3.919745504188620E+08, -3.528505296186715E+07,
2460434.500000000, A.D. 2024-May-04 00:00:00.0000, -1.540649908632572E+08, -3.972241231501638E+08, -3.573484238220835E+07,
2460441.500000000, A.D. 2024-May-11 00:00:00.0000, -1.489509865125279E+08, -4.022269958836917E+08, -3.616243228944480E+07,
2460448.500000000, A.D. 2024-May-18 00:00:00.0000, -1.437463337877287E+08, -4.069850636480796E+08, -3.656800671990663E+07,
2460455.500000000, A.D. 2024-May-25 00:00:00.0000, -1.384558449617777E+08, -4.115000840084627E+08, -3.695173684228519E+07,
2460462.500000000, A.D. 2024-Jun-01 00:00:00.0000, -1.330841338481440E+08, -4.157736809198852E+08, -3.731378135933352E+07,
2460469.500000000, A.D. 2024-Jun-08 00:00:00.0000, -1.276356329750839E+08, -4.198073484850974E+08, -3.765428692090964E+07,
2460476.500000000, A.D. 2024-Jun-15 00:00:00.0000, -1.221146086969602E+08, -4.236024540688444E+08, -3.797338854034033E+07,
2460483.500000000, A.D. 2024-Jun-22 00:00:00.0000, -1.165251754061443E+08, -4.271602395930620E+08, -3.827120982595381E+07,
2460490.500000000, A.D. 2024-Jun-29 00:00:00.0000, -1.108713111069060E+08, -4.304818228349708E+08, -3.854786298232093E+07,
2460497.500000000, A.D. 2024-Jul-06 00:00:00.0000, -1.051568718306723E+08, -4.335682012028182E+08, -3.880344902649105E+07,
2460504.500000000, A.D. 2024-Jul-13 00:00:00.0000, -9.938560305595258E+07, -4.364202551707637E+08, -3.903805816817757E+07,
2460511.500000000, A.D. 2024-Jul-20 00:00:00.0000, -9.356115022077905E+07, -4.390387502289299E+08, -3.925177007866129E+07,
2460518.500000000, A.D. 2024-Jul-27 00:00:00.0000, -8.768706907584594E+07, -4.414243383111552E+08, -3.944465406723011E+07,
2460525.500000000, A.D. 2024-Aug-03 00:00:00.0000, -8.176683568866755E+07, -4.435775590773535E+08, -3.961676922131675E+07,
2460532.500000000, A.D. 2024-Aug-10 00:00:00.0000, -7.580385600838535E+07, -4.454988410561011E+08, -3.976816452637699E+07,
2460539.500000000, A.D. 2024-Aug-17 00:00:00.0000, -6.980147501258400E+07, -4.471885026266971E+08, -3.989887896862113E+07,
2460546.500000000, A.D. 2024-Aug-24 00:00:00.0000, -6.376298547178975E+07, -4.486467528641443E+08, -4.000894162560758E+07,
2460553.500000000, A.D. 2024-Aug-31 00:00:00.0000, -5.769163627577703E+07, -4.498736923096364E+08, -4.009837176094538E+07,
2460560.500000000, A.D. 2024-Sep-07 00:00:00.0000, -5.159064001301053E+07, -4.508693135405711E+08, -4.016717894681585E+07,
2460567.500000000, A.D. 2024-Sep-14 00:00:00.0000, -4.546317977253295E+07, -4.516335005434604E+08, -4.021536314109102E+07,
2460574.500000000, A.D. 2024-Sep-21 00:00:00.0000, -3.931241724992181E+07, -4.521660264744303E+08, -4.024291449932206E+07,
2460581.500000000, A.D. 2024-Sep-28 00:00:00.0000, -3.314150269573667E+07, -4.524665530299336E+08, -4.024981314046308E+07,
2460588.500000000, A.D. 2024-Oct-05 00:00:00.0000, -2.695358308617584E+07, -4.525346314201917E+08, -4.023602920246214E+07,
2460595.500000000, A.D. 2024-Oct-12 00:00:00.0000, -2.075180892545789E+07, -4.523697019587024E+08, -4.020152291060656E+07,
2460602.500000000, A.D. 2024-Oct-19 00:00:00.0000, -1.453934147917641E+07, -4.519710925308160E+08, -4.014624451956788E+07,
2460609.500000000, A.D. 2024-Oct-26 00:00:00.0000, -8.319360519507707E+06, -4.513380167350006E+08, -4.007013419126755E+07,
2460616.500000000, A.D. 2024-Nov-02 00:00:00.0000, -2.095072375589144E+06, -4.504695718377865E+08, -3.997312184405234E+07,
2460623.500000000, A.D. 2024-Nov-09 00:00:00.0000, 4.130281753428721E+06, -4.493647365133340E+08, -3.985512697999904E+07,
2460630.500000000, A.D. 2024-Nov-16 00:00:00.0000, 1.035341719091375E+07, -4.480223683569568E+08, -3.971605849207273E+07,
2460637.500000000, A.D. 2024-Nov-23 00:00:00.0000, 1.657099686648312E+07, -4.464412012100973E+08, -3.955581445860490E+07,
2460644.500000000, A.D. 2024-Nov-30 00:00:00.0000, 2.277962223343376E+07, -4.446198423252367E+08, -3.937428194651830E+07,
2460651.500000000, A.D. 2024-Dec-07 00:00:00.0000, 2.897582436802733E+07, -4.425567689340732E+08, -3.917133682599843E+07,
2460658.500000000, A.D. 2024-Dec-14 00:00:00.0000, 3.515605448419388E+07, -4.402503229766906E+08, -3.894684343181157E+07,
2460665.500000000, A.D. 2024-Dec-21 00:00:00.0000, 4.131667145989872E+07, -4.376987052112263E+08, -3.870065395816270E+07,
2460672.500000000, A.D. 2024-Dec-28 00:00:00.0000, 4.745392825449432E+07, -4.348999716479372E+08, -3.843260800860447E+07,
2460679.500000000, A.D. 2025-Jan-04 00:00:00.0000, 5.356395971107893E+07, -4.318520299079556E+08, -3.814253234317207E+07,
2460686.500000000, A.D. 2025-Jan-11 00:00:00.0000, 5.964276980632375E+07, -4.285526338222165E+08, -3.783024051802132E+07,
2460693.500000000, A.D. 2025-Jan-18 00:00:00.0000, 6.568621729970410E+07, -4.249993771619605E+08, -3.749553240626252E+07,
2460700.500000000, A.D. 2025-Jan-25 00:00:00.0000, 7.168999987755667E+07, -4.211896869454249E+08, -3.713819365862980E+07,
2460707.500000000, A.D. 2025-Feb-01 00:00:00.0000, 7.764963681349595E+07, -4.171208163185060E+08, -3.675799512119293E+07,
$$EOE